<?xml version='1.0' encoding='UTF-8'?><kml xmlns="http://www.opengis.net/kml/2.2"><Document><name>Samsung s22 </name><Placemark><name>2026-05-06 22:00 - 2026-05-07 21:59</name><LineString><extrude>1</extrude><tessellate>1</tessellate><altitudeMode>absolute</altitudeMode><coordinates>3.834160,43.631339,125.200000 3.834458,43.630902,125.500000 3.835626,43.630304,125.500000 3.836728,43.631253,122.900000 3.836818,43.631714,122.900000 3.835536,43.631974,117.800000 3.833448,43.633181,117.800000 3.833625,43.634125,120.000000 3.835983,43.633517,111.000000 3.840014,43.631327,104.000000 3.841959,43.630782,100.000000 3.844567,43.629249,96.000000 3.846954,43.627360,96.100000 3.847521,43.627061,96.100000 3.850462,43.625245,96.100000 3.854144,43.623361,96.100000 3.856879,43.621139,80.000000 3.857913,43.620617,85.500000 3.860288,43.619696,85.500000 3.863116,43.618344,85.500000 3.866333,43.617872,79.000000 3.866866,43.617627,98.300000 3.869316,43.617530,98.300000 3.871753,43.617306,98.300000 3.873280,43.617019,74.000000 3.874678,43.616274,72.000000 3.877083,43.615315,73.000000 3.879871,43.614906,68.000000 3.881539,43.614907,75.000000 3.883138,43.614583,75.000000 3.885298,43.613650,74.500000 3.889097,43.612750,74.500000 3.889367,43.612293,74.500000 3.890333,43.610477,69.160000 3.891300,43.609022,57.000000 3.893896,43.608839,68.300000 3.898894,43.609318,72.000000 3.905179,43.610025,72.000000 3.911286,43.608825,69.000000 3.917265,43.607280,75.000000 3.923524,43.607457,84.000000 3.930568,43.607802,89.000000 3.936786,43.604044,86.000000 3.939934,43.598202,68.000000 3.940139,43.592012,59.000000 3.940670,43.586087,51.000000 3.944089,43.580702,48.000000 3.949371,43.576075,48.000000 3.955104,43.571800,51.000000 3.957074,43.566031,49.000000 3.961327,43.560893,48.000000 3.965873,43.555899,48.000000 3.971120,43.551383,51.000000 3.979107,43.550198,58.000000 3.986849,43.549962,51.000000 3.994364,43.552258,53.800000 4.002494,43.553037,53.800000 4.010198,43.555111,53.800000 4.018044,43.556991,53.800000 4.026080,43.558346,50.000000 4.033758,43.560383,55.000000 4.041426,43.562525,54.000000 4.049330,43.564232,49.000000 4.057232,43.565943,68.300000 4.065131,43.567661,53.000000 4.073019,43.569406,53.000000 4.078737,43.568405,47.000000 4.079504,43.563946,47.000000 4.077661,43.562750,38.000000 4.076446,43.563082,53.300000 4.076446,43.563082,53.300000 4.076428,43.561852,53.300000 4.076678,43.563659,53.300000 4.075982,43.564519,53.300000 4.073347,43.564754,53.300000 4.072427,43.563247,53.300000 4.071595,43.562051,53.400000 4.071445,43.561576,54.500000 4.074625,43.561334,54.500000 4.077452,43.560695,54.500000 4.078885,43.559758,53.500000 4.081018,43.560631,53.500000 4.082337,43.560195,39.000000 4.083256,43.559035,39.000000 4.085105,43.559506,63.200000 4.086335,43.558003,63.200000 4.087958,43.558278,61.100000 4.088947,43.559349,61.100000 4.088948,43.559814,55.000000 4.087790,43.561254,55.000000 4.086763,43.562624,55.000000 4.085282,43.563843,37.000000 4.080554,43.564957,38.000000 4.078864,43.569080,36.000000 4.080454,43.572270,44.000000 4.078644,43.570826,46.000000 4.071635,43.569268,46.000000 4.064068,43.567632,48.000000 4.056168,43.565920,48.000000 4.048259,43.564207,48.000000 4.040378,43.562512,52.000000 4.032809,43.560186,55.000000 4.025014,43.558345,50.000000 4.016997,43.556946,49.000000 4.009188,43.555002,49.000000 4.001438,43.552945,48.000000 3.993281,43.552347,48.000000 3.985810,43.550380,48.000000 3.979851,43.549126,47.000000 3.974605,43.548359,47.000000 3.971438,43.546593,49.000000 3.971145,43.546195,57.530000 3.968963,43.544576,54.200000 3.964512,43.543242,54.200000 3.957471,43.540700,49.000000 3.950287,43.537766,48.000000 3.943927,43.535267,46.000000 3.938509,43.534924,48.000000 3.936581,43.535318,49.000000 3.933345,43.535732,48.000000 3.927126,43.533737,49.000000 3.925357,43.532013,47.000000 3.922202,43.530596,48.000000 3.917869,43.533399,55.000000 3.912159,43.534938,49.000000 3.905557,43.534985,49.000000 3.900432,43.538332,49.000000 3.897840,43.540385,49.000000 3.896095,43.544422,46.000000 3.893809,43.550208,44.000000 3.892904,43.556020,47.000000 3.893988,43.561544,50.000000 3.895277,43.567475,49.000000 3.896741,43.573353,49.000000 3.898174,43.579225,52.000000 3.896939,43.584361,55.000000 3.893265,43.587541,64.000000 3.892099,43.588419,64.000000 3.891647,43.588749,71.200000 3.891150,43.589027,68.700000 3.890710,43.589400,63.540000 3.888479,43.589486,68.700000 3.885180,43.590474,59.000000 3.882470,43.591502,70.400000 3.881912,43.591709,70.400000 3.880111,43.592456,70.400000 3.879711,43.592901,69.500000 3.878486,43.595128,69.500000 3.875894,43.597070,82.000000 3.874792,43.597716,84.000000 3.874262,43.597972,83.500000 3.872816,43.598648,83.500000 3.872270,43.598911,83.500000 3.871736,43.599194,91.900000 3.870397,43.599858,92.700000 3.869878,43.600125,92.700000 3.869357,43.600382,86.800000 3.868865,43.600674,92.700000 3.867995,43.601346,90.050000 3.866824,43.602391,87.000000 3.865450,43.603781,87.000000 3.865173,43.604186,94.010000 3.865091,43.604643,91.100000 3.866229,43.605242,90.700000 3.866714,43.605577,89.000000 3.867180,43.605897,87.900000 3.867191,43.607207,85.450000 3.867546,43.607584,85.500000 3.868053,43.607869,84.900000 3.868596,43.608140,84.600000 3.869671,43.608494,84.600000 3.870161,43.608782,84.600000 3.871144,43.609966,84.600000 3.871600,43.610310,96.400000 3.871889,43.610718,96.400000 3.872000,43.611162,105.400000 3.871658,43.611987,94.370000 3.869837,43.612099,93.530000 3.868359,43.612227,93.500000 3.867843,43.612525,86.520000 3.865829,43.613896,90.500000 3.862984,43.615839,90.500000 3.861802,43.616655,90.800000 3.861321,43.616989,92.400000 3.859094,43.618549,92.400000 3.858980,43.620210,86.300000 3.858437,43.620432,86.100000 3.856650,43.621267,85.200000 3.854521,43.622934,85.200000 3.852844,43.624294,89.140000 3.851638,43.624829,91.700000 3.850168,43.625479,93.300000 3.849741,43.625808,94.500000 3.848540,43.626627,95.800000 3.848041,43.626909,95.800000 3.846899,43.627428,96.800000 3.846446,43.627754,96.300000 3.846119,43.628176,96.700000 3.844795,43.629189,96.700000 3.844265,43.629452,105.200000 3.843038,43.630437,105.200000 3.842792,43.630856,100.000000 3.842817,43.631346,99.000000 3.839729,43.631367,103.000000 3.835477,43.633867,111.000000 3.833965,43.634461,131.200000 3.832740,43.634147,131.200000 3.832290,43.633795,120.300000 3.832137,43.632515,120.300000 3.833483,43.632427,123.600000</coordinates></LineString></Placemark></Document></kml>