<?xml version='1.0' encoding='UTF-8'?><kml xmlns="http://www.opengis.net/kml/2.2"><Document><name>Samsung s22 </name><Placemark><name>2026-05-05 22:00 - 2026-05-06 21:59</name><LineString><extrude>1</extrude><tessellate>1</tessellate><altitudeMode>absolute</altitudeMode><coordinates>3.833980,43.631740,125.200000 3.833980,43.631740,125.200000 3.833600,43.633153,119.400000 3.833661,43.634211,119.570000 3.834351,43.634236,135.600000 3.838131,43.631924,135.600000 3.842619,43.630697,135.600000 3.845802,43.628467,89.000000 3.849031,43.626243,89.000000 3.852347,43.624511,80.000000 3.854633,43.622598,78.000000 3.856967,43.621089,75.000000 3.857497,43.620826,91.100000 3.859422,43.620005,91.100000 3.862679,43.618653,91.100000 3.865398,43.618214,81.000000 3.867069,43.617560,80.000000 3.869532,43.617618,76.000000 3.872109,43.617206,71.000000 3.874712,43.616259,69.000000 3.876665,43.615443,76.400000 3.879716,43.614966,76.400000 3.882447,43.614996,76.400000 3.883319,43.613977,91.600000 3.887185,43.613818,91.600000 3.889003,43.612854,72.400000 3.889787,43.611553,72.400000 3.890580,43.610083,69.300000 3.892491,43.608975,69.300000 3.894534,43.608791,68.300000 3.900138,43.609509,68.300000 3.906427,43.609970,76.000000 3.912457,43.608494,72.000000 3.918474,43.607092,69.000000 3.924718,43.607681,86.000000 3.932055,43.607296,93.000000 3.937660,43.602976,82.000000 3.940127,43.597289,67.000000 3.940100,43.591304,57.000000 3.940939,43.585404,50.000000 3.944646,43.580090,56.000000 3.950035,43.575558,49.000000 3.955485,43.571140,50.000000 3.957563,43.565442,50.000000 3.961883,43.560347,50.000000 3.966425,43.555346,49.000000 3.971997,43.551130,51.000000 3.979917,43.549870,56.000000 3.987653,43.550304,49.000000 3.995283,43.552308,49.000000 4.003362,43.553265,52.000000 4.011080,43.555335,63.230000 4.018930,43.557167,50.000000 4.026993,43.558493,54.000000 4.034553,43.560727,54.000000 4.042297,43.562746,50.000000 4.050205,43.564439,48.000000 4.058113,43.566150,50.000000 4.066005,43.567860,51.000000 4.073871,43.569587,49.000000 4.078731,43.567865,49.000000 4.079498,43.563908,52.000000 4.078305,43.562843,45.000000 4.076845,43.563075,53.900000 4.076845,43.563075,53.900000 4.076512,43.563987,53.300000 4.075101,43.564300,53.300000 4.073194,43.564661,53.300000 4.072338,43.563234,53.300000 4.071567,43.562099,53.600000 4.071365,43.561652,54.500000 4.075359,43.561225,54.500000 4.077267,43.560803,54.000000 4.078657,43.559592,53.400000 4.081673,43.560828,53.400000 4.083115,43.559143,53.400000 4.085216,43.559360,45.000000 4.086890,43.557749,44.000000 4.088203,43.558908,43.000000 4.088992,43.559705,54.800000 4.088213,43.560672,54.800000 4.087404,43.561800,54.900000 4.086006,43.563553,54.900000 4.082273,43.564174,54.900000 4.079239,43.566418,45.000000 4.078721,43.570020,46.000000 4.081258,43.572267,49.000000 4.077597,43.570549,50.000000 4.069965,43.568904,51.000000 4.062049,43.567193,49.000000 4.054134,43.565491,51.000000 4.046240,43.563780,48.000000 4.038305,43.562029,54.000000 4.030272,43.559289,55.000000 4.022255,43.557888,50.000000 4.013714,43.556166,49.000000 4.005997,43.554130,50.000000 3.998079,43.552579,51.000000 3.990044,43.551531,51.000000 3.982539,43.549384,53.000000 3.974742,43.551064,51.000000 3.967949,43.553853,52.000000 3.963384,43.558827,52.000000 3.959028,43.563927,50.000000 3.956015,43.569396,47.000000 3.952096,43.574398,51.000000 3.946375,43.578707,55.000000 3.941987,43.583742,52.000000 3.940335,43.588531,53.000000 3.940292,43.593093,62.000000 3.940292,43.593093,62.000000 3.940290,43.596076,62.000000 3.940283,43.596527,63.000000 3.939997,43.598398,70.000000 3.939111,43.600920,74.000000 3.937785,43.603009,82.000000 3.936040,43.604903,90.000000 3.933086,43.606940,94.000000 3.927030,43.608153,87.000000 3.927030,43.608153,87.000000 3.921274,43.607401,69.000000 3.915121,43.607960,74.000000 3.909432,43.609437,65.000000 3.903511,43.610022,67.000000 3.898005,43.609268,64.000000 3.896298,43.609050,66.000000 3.895667,43.608995,65.000000 3.894099,43.609445,61.000000 3.890961,43.610368,61.660000 3.890373,43.610582,71.000000 3.889146,43.612816,68.370000 3.888807,43.613196,72.700000 3.886334,43.613983,72.700000 3.885674,43.613900,71.700000 3.884423,43.614078,82.400000 3.883902,43.614326,73.100000 3.882802,43.615025,72.900000 3.882135,43.615057,67.000000 3.879873,43.615081,75.200000 3.877830,43.615234,75.200000 3.877271,43.615488,75.200000 3.875052,43.616098,75.200000 3.874103,43.616718,77.400000 3.873654,43.617032,77.200000 3.871626,43.617465,77.200000 3.869332,43.617633,77.200000 3.868350,43.617267,83.700000 3.866494,43.617817,83.700000 3.863757,43.618342,77.000000 3.863148,43.618518,81.000000 3.860611,43.619593,81.000000 3.858391,43.620483,77.000000 3.857848,43.620765,85.600000 3.855211,43.622193,85.600000 3.854495,43.622978,79.000000 3.851534,43.624887,84.000000 3.848543,43.626646,87.000000 3.845977,43.628350,87.000000 3.845604,43.628729,97.300000 3.843536,43.629920,97.300000 3.843159,43.630306,97.300000 3.842844,43.631204,104.510000 3.841588,43.631452,98.000000 3.837768,43.632232,103.000000 3.834512,43.634271,117.550000 3.833090,43.634389,111.000000 3.832194,43.633708,120.200000 3.832403,43.632443,120.200000 3.833467,43.632462,127.400000 3.834205,43.631296,127.400000 3.834384,43.631730,123.700000 3.834831,43.632050,121.600000</coordinates></LineString></Placemark></Document></kml>