<?xml version='1.0' encoding='UTF-8'?><kml xmlns="http://www.opengis.net/kml/2.2"><Document><name>Samsung s22 </name><Placemark><name>2026-05-04 22:00 - 2026-05-05 21:59</name><LineString><extrude>1</extrude><tessellate>1</tessellate><altitudeMode>absolute</altitudeMode><coordinates>3.835694,43.631899,119.300000 3.835694,43.631899,119.300000 3.835123,43.632187,121.800000 3.833756,43.633519,119.500000 3.834236,43.634278,116.000000 3.841957,43.630781,104.000000 3.846611,43.627603,95.000000 3.851944,43.624688,87.000000 3.854623,43.622624,88.200000 3.857633,43.620799,85.600000 3.862725,43.618622,85.000000 3.866455,43.617798,81.000000 3.867015,43.617586,80.000000 3.871565,43.617407,81.500000 3.875402,43.615969,76.900000 3.880582,43.614787,76.900000 3.881205,43.614805,73.600000 3.884293,43.613814,73.600000 3.889285,43.612476,72.400000 3.890550,43.610144,68.700000 3.893748,43.608826,68.900000 3.894371,43.608804,68.900000 3.904529,43.610066,70.000000 3.917515,43.607241,74.000000 3.930548,43.607817,86.000000 3.939882,43.598305,70.000000 3.940570,43.586379,53.000000 3.948879,43.576455,49.000000 3.956544,43.566692,49.000000 3.965289,43.556556,48.000000 3.977875,43.550623,55.000000 3.992704,43.552109,47.000000 4.008354,43.554614,46.000000 4.023872,43.558004,48.000000 4.039223,43.562072,51.000000 4.054741,43.565432,47.000000 4.070246,43.568813,46.000000 4.079119,43.565676,45.000000 4.077334,43.562724,42.000000 4.077334,43.562724,42.000000 4.076571,43.563051,53.200000 4.076658,43.563508,53.300000 4.074502,43.564313,53.400000 4.071822,43.562488,53.400000 4.071637,43.562052,54.500000 4.075815,43.561143,54.100000 4.078188,43.559554,53.500000 4.081101,43.560601,53.500000 4.081682,43.560803,46.000000 4.083149,43.559075,47.000000 4.085941,43.558383,53.700000 4.088251,43.558979,56.800000 4.088740,43.559334,54.800000 4.088740,43.559334,54.800000 4.088796,43.559871,55.000000 4.087616,43.561916,55.300000 4.087089,43.562176,55.600000 4.083023,43.564030,54.200000 4.078732,43.569849,54.200000 4.076995,43.570424,46.000000 4.061638,43.567101,47.000000 4.045946,43.563721,49.000000 4.030930,43.559477,54.000000 4.015286,43.556566,46.000000 3.999967,43.552711,48.000000 3.986092,43.549854,48.000000 3.970906,43.551609,46.000000 3.961360,43.561049,45.000000 3.955417,43.571701,47.000000 3.945793,43.579209,54.000000 3.940325,43.587978,53.000000 3.940358,43.594866,70.110000 3.940363,43.595860,71.290000 3.939859,43.598975,65.000000 3.937949,43.602839,78.000000 3.937203,43.603700,83.000000 3.936861,43.604089,88.000000 3.936512,43.604464,93.440000 3.936512,43.604464,93.440000 3.935602,43.605318,93.000000 3.935186,43.605669,93.000000 3.934737,43.605987,93.000000 3.933028,43.607057,91.000000 3.930978,43.608093,90.000000 3.930081,43.611685,93.480000 3.930552,43.612053,93.920000 3.941344,43.614801,99.500000 3.949655,43.618249,76.000000 3.956282,43.622873,69.000000 3.956765,43.627443,66.000000 3.950300,43.631927,71.000000 3.947206,43.636992,77.000000 3.944854,43.637161,82.410000 3.940726,43.634069,83.000000 3.936036,43.630790,87.000000 3.935388,43.632957,89.000000 3.935253,43.633399,89.940000 3.934499,43.634554,91.230000 3.933282,43.635557,89.000000 3.931998,43.636642,87.000000 3.931729,43.637047,88.000000 3.931518,43.637473,88.100000 3.931297,43.637896,88.500000 3.931437,43.638337,88.100000 3.934036,43.638963,87.300000 3.935939,43.642598,87.300000 3.939389,43.643810,92.500000 3.941431,43.644220,92.600000 3.941901,43.642540,87.600000 3.941901,43.642540,87.600000 3.941041,43.642306,87.600000 3.941644,43.642184,87.600000 3.940017,43.641152,87.400000 3.939506,43.640842,87.400000 3.934843,43.639286,83.000000 3.932256,43.638509,86.800000 3.929447,43.637533,88.800000 3.927430,43.638562,88.800000 3.927404,43.639045,90.700000 3.927404,43.639045,90.700000 3.926859,43.639680,90.600000 3.921112,43.639920,98.000000 3.916683,43.641570,110.000000 3.914510,43.644553,115.000000 3.910044,43.645498,109.000000 3.910578,43.648476,105.000000 3.905972,43.649084,101.000000 3.900366,43.645443,91.000000 3.895207,43.643340,90.600000 3.889819,43.645672,86.000000 3.884451,43.648615,84.000000 3.878772,43.654800,93.000000 3.869646,43.651517,93.000000 3.857714,43.649852,103.000000 3.851645,43.644659,116.000000 3.846504,43.638896,112.000000 3.845029,43.636970,106.900000 3.843303,43.634138,105.600000 3.839857,43.631352,105.600000 3.834344,43.634328,131.200000 3.832527,43.633796,119.900000 3.833885,43.631812,127.400000</coordinates></LineString></Placemark></Document></kml>