<?xml version='1.0' encoding='UTF-8'?><kml xmlns="http://www.opengis.net/kml/2.2"><Document><name>Samsung s22 </name><Placemark><name>2026-05-09 22:00 - 2026-05-10 21:59</name><LineString><extrude>1</extrude><tessellate>1</tessellate><altitudeMode>absolute</altitudeMode><coordinates>3.834232,43.631172,126.400000 3.835985,43.630637,123.520000 3.836990,43.631618,126.300000 3.835771,43.632113,117.300000 3.834216,43.632718,119.300000 3.833774,43.633624,119.300000 3.834358,43.634203,119.300000 3.838040,43.631959,105.000000 3.841787,43.630788,100.000000 3.844844,43.629086,94.000000 3.846350,43.627743,98.200000 3.849631,43.625816,98.200000 3.853102,43.624102,98.200000 3.855591,43.621898,86.000000 3.857547,43.620799,86.200000 3.859564,43.619949,86.200000 3.862747,43.618610,86.200000 3.865464,43.618201,81.000000 3.867113,43.617544,82.700000 3.869326,43.617567,82.700000 3.871731,43.617329,82.700000 3.873993,43.616722,73.000000 3.874960,43.616087,77.300000 3.877745,43.615193,77.300000 3.880738,43.614783,77.300000 3.883033,43.614798,73.500000 3.884505,43.613729,73.500000 3.888851,43.613053,73.500000 3.889556,43.611962,77.300000 3.890669,43.609922,77.300000 3.892295,43.608973,70.500000 3.892966,43.608913,68.500000 3.898195,43.609216,68.500000 3.904478,43.610048,68.500000 3.910599,43.608996,70.000000 3.916580,43.607410,77.000000 3.922821,43.607366,85.000000 3.929324,43.608030,86.000000 3.936072,43.604769,88.000000 3.939586,43.599415,73.000000 3.940198,43.593427,62.000000 3.940126,43.587939,56.000000 3.942737,43.582278,55.000000 3.947590,43.577429,55.000000 3.953501,43.573291,57.000000 3.956026,43.567786,52.000000 3.959952,43.562552,55.000000 3.964416,43.557526,56.000000 3.969050,43.552539,55.000000 3.976621,43.550859,59.000000 3.983303,43.548959,58.000000 3.987547,43.549825,53.800000 3.985631,43.549327,53.800000 3.985119,43.548163,53.800000 3.985914,43.546819,54.300000 3.983916,43.546136,54.800000 3.981770,43.545416,54.800000 3.980965,43.546401,54.700000 3.977993,43.545210,54.300000 3.977993,43.545210,54.300000 3.978295,43.545664,54.000000 3.979159,43.547273,54.000000 3.979148,43.548364,54.000000 3.978078,43.548671,54.100000 3.975875,43.548277,54.100000 3.974346,43.548277,54.400000 3.972028,43.547226,54.400000 3.970568,43.545608,54.400000 3.968155,43.544146,50.000000 3.968652,43.542462,47.000000 3.967225,43.540977,50.000000 3.965423,43.540159,54.500000 3.963324,43.539205,54.500000 3.961050,43.538177,54.500000 3.958789,43.537170,52.000000 3.956321,43.536180,50.000000 3.953919,43.535218,50.000000 3.951636,43.534323,54.000000 3.948974,43.533267,53.000000 3.946553,43.532541,53.000000 3.944030,43.531819,51.000000 3.941918,43.531246,54.300000 3.940042,43.531246,54.300000 3.939031,43.533188,54.300000 3.938055,43.534935,54.300000 3.932060,43.535634,53.000000 3.926414,43.533091,51.000000 3.924287,43.530941,54.000000 3.920852,43.531445,53.000000 3.916514,43.534023,59.000000 3.908699,43.534599,53.000000 3.901937,43.537346,55.000000 3.898204,43.540180,54.000000 3.896365,43.543650,51.000000 3.894093,43.549410,52.000000 3.892994,43.555312,55.000000 3.893925,43.561239,50.000000 3.895219,43.567165,50.000000 3.896650,43.573066,54.000000 3.898080,43.578989,54.000000 3.897079,43.584132,54.000000 3.893529,43.587282,69.000000 3.890805,43.589091,65.300000 3.889292,43.589418,60.000000 3.885921,43.590201,64.000000 3.882817,43.591336,68.000000 3.880785,43.592064,69.500000 3.879600,43.593026,70.300000 3.878479,43.595126,70.300000 3.876366,43.596533,70.300000 3.873128,43.598498,89.000000 3.869198,43.600514,92.000000 3.866046,43.603150,91.000000 3.864477,43.606345,89.000000 3.862185,43.608404,88.000000 3.861623,43.608616,96.000000 3.857398,43.609200,96.000000 3.853501,43.608967,96.000000 3.852867,43.608901,116.000000 3.848627,43.608718,116.000000 3.844020,43.608839,116.000000 3.841571,43.608940,113.500000 3.837413,43.609729,113.500000 3.832663,43.610625,113.500000 3.829209,43.611284,111.800000 3.828608,43.611421,111.800000 3.824243,43.612177,111.800000 3.821449,43.614759,111.800000 3.820715,43.617835,94.000000 3.822605,43.620772,97.000000 3.823465,43.622912,98.000000 3.826753,43.624542,105.000000 3.830975,43.623301,113.000000 3.834013,43.623378,119.000000 3.836282,43.624775,117.000000 3.839272,43.627050,107.000000 3.841925,43.630239,98.000000 3.842124,43.630675,99.000000 3.841390,43.631280,101.000000 3.837226,43.632693,111.000000 3.833849,43.634434,120.100000 3.832525,43.633984,120.100000 3.832120,43.633621,120.100000 3.832280,43.632457,120.100000 3.833290,43.632572,123.600000</coordinates></LineString></Placemark></Document></kml>