{
  "type": "Feature",
  "properties": {
    "name": "Samsung s22",
    "source": "2026-05-07.kml",
    "pointCount": 210,
    "sanitized": false,
    "previewOnly": true
  },
  "geometry": {
    "type": "LineString",
    "coordinates": [
      [
        3.83416,
        43.631339
      ],
      [
        3.834458,
        43.630902
      ],
      [
        3.835626,
        43.630304
      ],
      [
        3.836728,
        43.631253
      ],
      [
        3.836818,
        43.631714
      ],
      [
        3.835536,
        43.631974
      ],
      [
        3.833448,
        43.633181
      ],
      [
        3.833625,
        43.634125
      ],
      [
        3.835983,
        43.633517
      ],
      [
        3.840014,
        43.631327
      ],
      [
        3.841959,
        43.630782
      ],
      [
        3.844567,
        43.629249
      ],
      [
        3.846954,
        43.62736
      ],
      [
        3.847521,
        43.627061
      ],
      [
        3.850462,
        43.625245
      ],
      [
        3.854144,
        43.623361
      ],
      [
        3.856879,
        43.621139
      ],
      [
        3.857913,
        43.620617
      ],
      [
        3.860288,
        43.619696
      ],
      [
        3.863116,
        43.618344
      ],
      [
        3.866333,
        43.617872
      ],
      [
        3.866866,
        43.617627
      ],
      [
        3.869316,
        43.61753
      ],
      [
        3.871753,
        43.617306
      ],
      [
        3.87328,
        43.617019
      ],
      [
        3.874678,
        43.616274
      ],
      [
        3.877083,
        43.615315
      ],
      [
        3.879871,
        43.614906
      ],
      [
        3.881539,
        43.614907
      ],
      [
        3.883138,
        43.614583
      ],
      [
        3.885298,
        43.61365
      ],
      [
        3.889097,
        43.61275
      ],
      [
        3.889367,
        43.612293
      ],
      [
        3.890333,
        43.610477
      ],
      [
        3.8913,
        43.609022
      ],
      [
        3.893896,
        43.608839
      ],
      [
        3.898894,
        43.609318
      ],
      [
        3.905179,
        43.610025
      ],
      [
        3.911286,
        43.608825
      ],
      [
        3.917265,
        43.60728
      ],
      [
        3.923524,
        43.607457
      ],
      [
        3.930568,
        43.607802
      ],
      [
        3.936786,
        43.604044
      ],
      [
        3.939934,
        43.598202
      ],
      [
        3.940139,
        43.592012
      ],
      [
        3.94067,
        43.586087
      ],
      [
        3.944089,
        43.580702
      ],
      [
        3.949371,
        43.576075
      ],
      [
        3.955104,
        43.5718
      ],
      [
        3.957074,
        43.566031
      ],
      [
        3.961327,
        43.560893
      ],
      [
        3.965873,
        43.555899
      ],
      [
        3.97112,
        43.551383
      ],
      [
        3.979107,
        43.550198
      ],
      [
        3.986849,
        43.549962
      ],
      [
        3.994364,
        43.552258
      ],
      [
        4.002494,
        43.553037
      ],
      [
        4.010198,
        43.555111
      ],
      [
        4.018044,
        43.556991
      ],
      [
        4.02608,
        43.558346
      ],
      [
        4.033758,
        43.560383
      ],
      [
        4.041426,
        43.562525
      ],
      [
        4.04933,
        43.564232
      ],
      [
        4.057232,
        43.565943
      ],
      [
        4.065131,
        43.567661
      ],
      [
        4.073019,
        43.569406
      ],
      [
        4.078737,
        43.568405
      ],
      [
        4.079504,
        43.563946
      ],
      [
        4.077661,
        43.56275
      ],
      [
        4.076446,
        43.563082
      ],
      [
        4.076446,
        43.563082
      ],
      [
        4.076428,
        43.561852
      ],
      [
        4.076678,
        43.563659
      ],
      [
        4.075982,
        43.564519
      ],
      [
        4.073347,
        43.564754
      ],
      [
        4.072427,
        43.563247
      ],
      [
        4.071595,
        43.562051
      ],
      [
        4.071445,
        43.561576
      ],
      [
        4.074625,
        43.561334
      ],
      [
        4.077452,
        43.560695
      ],
      [
        4.078885,
        43.559758
      ],
      [
        4.081018,
        43.560631
      ],
      [
        4.082337,
        43.560195
      ],
      [
        4.083256,
        43.559035
      ],
      [
        4.085105,
        43.559506
      ],
      [
        4.086335,
        43.558003
      ],
      [
        4.087958,
        43.558278
      ],
      [
        4.088947,
        43.559349
      ],
      [
        4.088948,
        43.559814
      ],
      [
        4.08779,
        43.561254
      ],
      [
        4.086763,
        43.562624
      ],
      [
        4.085282,
        43.563843
      ],
      [
        4.080554,
        43.564957
      ],
      [
        4.078864,
        43.56908
      ],
      [
        4.080454,
        43.57227
      ],
      [
        4.078644,
        43.570826
      ],
      [
        4.071635,
        43.569268
      ],
      [
        4.064068,
        43.567632
      ],
      [
        4.056168,
        43.56592
      ],
      [
        4.048259,
        43.564207
      ],
      [
        4.040378,
        43.562512
      ],
      [
        4.032809,
        43.560186
      ],
      [
        4.025014,
        43.558345
      ],
      [
        4.016997,
        43.556946
      ],
      [
        4.009188,
        43.555002
      ],
      [
        4.001438,
        43.552945
      ],
      [
        3.993281,
        43.552347
      ],
      [
        3.98581,
        43.55038
      ],
      [
        3.979851,
        43.549126
      ],
      [
        3.974605,
        43.548359
      ],
      [
        3.971438,
        43.546593
      ],
      [
        3.971145,
        43.546195
      ],
      [
        3.968963,
        43.544576
      ],
      [
        3.964512,
        43.543242
      ],
      [
        3.957471,
        43.5407
      ],
      [
        3.950287,
        43.537766
      ],
      [
        3.943927,
        43.535267
      ],
      [
        3.938509,
        43.534924
      ],
      [
        3.936581,
        43.535318
      ],
      [
        3.933345,
        43.535732
      ],
      [
        3.927126,
        43.533737
      ],
      [
        3.925357,
        43.532013
      ],
      [
        3.922202,
        43.530596
      ],
      [
        3.917869,
        43.533399
      ],
      [
        3.912159,
        43.534938
      ],
      [
        3.905557,
        43.534985
      ],
      [
        3.900432,
        43.538332
      ],
      [
        3.89784,
        43.540385
      ],
      [
        3.896095,
        43.544422
      ],
      [
        3.893809,
        43.550208
      ],
      [
        3.892904,
        43.55602
      ],
      [
        3.893988,
        43.561544
      ],
      [
        3.895277,
        43.567475
      ],
      [
        3.896741,
        43.573353
      ],
      [
        3.898174,
        43.579225
      ],
      [
        3.896939,
        43.584361
      ],
      [
        3.893265,
        43.587541
      ],
      [
        3.892099,
        43.588419
      ],
      [
        3.891647,
        43.588749
      ],
      [
        3.89115,
        43.589027
      ],
      [
        3.89071,
        43.5894
      ],
      [
        3.888479,
        43.589486
      ],
      [
        3.88518,
        43.590474
      ],
      [
        3.88247,
        43.591502
      ],
      [
        3.881912,
        43.591709
      ],
      [
        3.880111,
        43.592456
      ],
      [
        3.879711,
        43.592901
      ],
      [
        3.878486,
        43.595128
      ],
      [
        3.875894,
        43.59707
      ],
      [
        3.874792,
        43.597716
      ],
      [
        3.874262,
        43.597972
      ],
      [
        3.872816,
        43.598648
      ],
      [
        3.87227,
        43.598911
      ],
      [
        3.871736,
        43.599194
      ],
      [
        3.870397,
        43.599858
      ],
      [
        3.869878,
        43.600125
      ],
      [
        3.869357,
        43.600382
      ],
      [
        3.868865,
        43.600674
      ],
      [
        3.867995,
        43.601346
      ],
      [
        3.866824,
        43.602391
      ],
      [
        3.86545,
        43.603781
      ],
      [
        3.865173,
        43.604186
      ],
      [
        3.865091,
        43.604643
      ],
      [
        3.866229,
        43.605242
      ],
      [
        3.866714,
        43.605577
      ],
      [
        3.86718,
        43.605897
      ],
      [
        3.867191,
        43.607207
      ],
      [
        3.867546,
        43.607584
      ],
      [
        3.868053,
        43.607869
      ],
      [
        3.868596,
        43.60814
      ],
      [
        3.869671,
        43.608494
      ],
      [
        3.870161,
        43.608782
      ],
      [
        3.871144,
        43.609966
      ],
      [
        3.8716,
        43.61031
      ],
      [
        3.871889,
        43.610718
      ],
      [
        3.872,
        43.611162
      ],
      [
        3.871658,
        43.611987
      ],
      [
        3.869837,
        43.612099
      ],
      [
        3.868359,
        43.612227
      ],
      [
        3.867843,
        43.612525
      ],
      [
        3.865829,
        43.613896
      ],
      [
        3.862984,
        43.615839
      ],
      [
        3.861802,
        43.616655
      ],
      [
        3.861321,
        43.616989
      ],
      [
        3.859094,
        43.618549
      ],
      [
        3.85898,
        43.62021
      ],
      [
        3.858437,
        43.620432
      ],
      [
        3.85665,
        43.621267
      ],
      [
        3.854521,
        43.622934
      ],
      [
        3.852844,
        43.624294
      ],
      [
        3.851638,
        43.624829
      ],
      [
        3.850168,
        43.625479
      ],
      [
        3.849741,
        43.625808
      ],
      [
        3.84854,
        43.626627
      ],
      [
        3.848041,
        43.626909
      ],
      [
        3.846899,
        43.627428
      ],
      [
        3.846446,
        43.627754
      ],
      [
        3.846119,
        43.628176
      ],
      [
        3.844795,
        43.629189
      ],
      [
        3.844265,
        43.629452
      ],
      [
        3.843038,
        43.630437
      ],
      [
        3.842792,
        43.630856
      ],
      [
        3.842817,
        43.631346
      ],
      [
        3.839729,
        43.631367
      ],
      [
        3.835477,
        43.633867
      ],
      [
        3.833965,
        43.634461
      ],
      [
        3.83274,
        43.634147
      ],
      [
        3.83229,
        43.633795
      ],
      [
        3.832137,
        43.632515
      ],
      [
        3.833483,
        43.632427
      ]
    ]
  }
}
