{
  "type": "Feature",
  "properties": {
    "name": "Samsung s22",
    "source": "2026-05-05.kml",
    "pointCount": 142,
    "sanitized": false,
    "previewOnly": true
  },
  "geometry": {
    "type": "LineString",
    "coordinates": [
      [
        3.835694,
        43.631899
      ],
      [
        3.835694,
        43.631899
      ],
      [
        3.835123,
        43.632187
      ],
      [
        3.833756,
        43.633519
      ],
      [
        3.834236,
        43.634278
      ],
      [
        3.841957,
        43.630781
      ],
      [
        3.846611,
        43.627603
      ],
      [
        3.851944,
        43.624688
      ],
      [
        3.854623,
        43.622624
      ],
      [
        3.857633,
        43.620799
      ],
      [
        3.862725,
        43.618622
      ],
      [
        3.866455,
        43.617798
      ],
      [
        3.867015,
        43.617586
      ],
      [
        3.871565,
        43.617407
      ],
      [
        3.875402,
        43.615969
      ],
      [
        3.880582,
        43.614787
      ],
      [
        3.881205,
        43.614805
      ],
      [
        3.884293,
        43.613814
      ],
      [
        3.889285,
        43.612476
      ],
      [
        3.89055,
        43.610144
      ],
      [
        3.893748,
        43.608826
      ],
      [
        3.894371,
        43.608804
      ],
      [
        3.904529,
        43.610066
      ],
      [
        3.917515,
        43.607241
      ],
      [
        3.930548,
        43.607817
      ],
      [
        3.939882,
        43.598305
      ],
      [
        3.94057,
        43.586379
      ],
      [
        3.948879,
        43.576455
      ],
      [
        3.956544,
        43.566692
      ],
      [
        3.965289,
        43.556556
      ],
      [
        3.977875,
        43.550623
      ],
      [
        3.992704,
        43.552109
      ],
      [
        4.008354,
        43.554614
      ],
      [
        4.023872,
        43.558004
      ],
      [
        4.039223,
        43.562072
      ],
      [
        4.054741,
        43.565432
      ],
      [
        4.070246,
        43.568813
      ],
      [
        4.079119,
        43.565676
      ],
      [
        4.077334,
        43.562724
      ],
      [
        4.077334,
        43.562724
      ],
      [
        4.076571,
        43.563051
      ],
      [
        4.076658,
        43.563508
      ],
      [
        4.074502,
        43.564313
      ],
      [
        4.071822,
        43.562488
      ],
      [
        4.071637,
        43.562052
      ],
      [
        4.075815,
        43.561143
      ],
      [
        4.078188,
        43.559554
      ],
      [
        4.081101,
        43.560601
      ],
      [
        4.081682,
        43.560803
      ],
      [
        4.083149,
        43.559075
      ],
      [
        4.085941,
        43.558383
      ],
      [
        4.088251,
        43.558979
      ],
      [
        4.08874,
        43.559334
      ],
      [
        4.08874,
        43.559334
      ],
      [
        4.088796,
        43.559871
      ],
      [
        4.087616,
        43.561916
      ],
      [
        4.087089,
        43.562176
      ],
      [
        4.083023,
        43.56403
      ],
      [
        4.078732,
        43.569849
      ],
      [
        4.076995,
        43.570424
      ],
      [
        4.061638,
        43.567101
      ],
      [
        4.045946,
        43.563721
      ],
      [
        4.03093,
        43.559477
      ],
      [
        4.015286,
        43.556566
      ],
      [
        3.999967,
        43.552711
      ],
      [
        3.986092,
        43.549854
      ],
      [
        3.970906,
        43.551609
      ],
      [
        3.96136,
        43.561049
      ],
      [
        3.955417,
        43.571701
      ],
      [
        3.945793,
        43.579209
      ],
      [
        3.940325,
        43.587978
      ],
      [
        3.940358,
        43.594866
      ],
      [
        3.940363,
        43.59586
      ],
      [
        3.939859,
        43.598975
      ],
      [
        3.937949,
        43.602839
      ],
      [
        3.937203,
        43.6037
      ],
      [
        3.936861,
        43.604089
      ],
      [
        3.936512,
        43.604464
      ],
      [
        3.936512,
        43.604464
      ],
      [
        3.935602,
        43.605318
      ],
      [
        3.935186,
        43.605669
      ],
      [
        3.934737,
        43.605987
      ],
      [
        3.933028,
        43.607057
      ],
      [
        3.930978,
        43.608093
      ],
      [
        3.930081,
        43.611685
      ],
      [
        3.930552,
        43.612053
      ],
      [
        3.941344,
        43.614801
      ],
      [
        3.949655,
        43.618249
      ],
      [
        3.956282,
        43.622873
      ],
      [
        3.956765,
        43.627443
      ],
      [
        3.9503,
        43.631927
      ],
      [
        3.947206,
        43.636992
      ],
      [
        3.944854,
        43.637161
      ],
      [
        3.940726,
        43.634069
      ],
      [
        3.936036,
        43.63079
      ],
      [
        3.935388,
        43.632957
      ],
      [
        3.935253,
        43.633399
      ],
      [
        3.934499,
        43.634554
      ],
      [
        3.933282,
        43.635557
      ],
      [
        3.931998,
        43.636642
      ],
      [
        3.931729,
        43.637047
      ],
      [
        3.931518,
        43.637473
      ],
      [
        3.931297,
        43.637896
      ],
      [
        3.931437,
        43.638337
      ],
      [
        3.934036,
        43.638963
      ],
      [
        3.935939,
        43.642598
      ],
      [
        3.939389,
        43.64381
      ],
      [
        3.941431,
        43.64422
      ],
      [
        3.941901,
        43.64254
      ],
      [
        3.941901,
        43.64254
      ],
      [
        3.941041,
        43.642306
      ],
      [
        3.941644,
        43.642184
      ],
      [
        3.940017,
        43.641152
      ],
      [
        3.939506,
        43.640842
      ],
      [
        3.934843,
        43.639286
      ],
      [
        3.932256,
        43.638509
      ],
      [
        3.929447,
        43.637533
      ],
      [
        3.92743,
        43.638562
      ],
      [
        3.927404,
        43.639045
      ],
      [
        3.927404,
        43.639045
      ],
      [
        3.926859,
        43.63968
      ],
      [
        3.921112,
        43.63992
      ],
      [
        3.916683,
        43.64157
      ],
      [
        3.91451,
        43.644553
      ],
      [
        3.910044,
        43.645498
      ],
      [
        3.910578,
        43.648476
      ],
      [
        3.905972,
        43.649084
      ],
      [
        3.900366,
        43.645443
      ],
      [
        3.895207,
        43.64334
      ],
      [
        3.889819,
        43.645672
      ],
      [
        3.884451,
        43.648615
      ],
      [
        3.878772,
        43.6548
      ],
      [
        3.869646,
        43.651517
      ],
      [
        3.857714,
        43.649852
      ],
      [
        3.851645,
        43.644659
      ],
      [
        3.846504,
        43.638896
      ],
      [
        3.845029,
        43.63697
      ],
      [
        3.843303,
        43.634138
      ],
      [
        3.839857,
        43.631352
      ],
      [
        3.834344,
        43.634328
      ],
      [
        3.832527,
        43.633796
      ],
      [
        3.833885,
        43.631812
      ]
    ]
  }
}
