{
  "type": "Feature",
  "properties": {
    "name": "Samsung s22",
    "source": "2026-05-06.kml",
    "pointCount": 172,
    "sanitized": false,
    "previewOnly": true
  },
  "geometry": {
    "type": "LineString",
    "coordinates": [
      [
        3.83398,
        43.63174
      ],
      [
        3.83398,
        43.63174
      ],
      [
        3.8336,
        43.633153
      ],
      [
        3.833661,
        43.634211
      ],
      [
        3.834351,
        43.634236
      ],
      [
        3.838131,
        43.631924
      ],
      [
        3.842619,
        43.630697
      ],
      [
        3.845802,
        43.628467
      ],
      [
        3.849031,
        43.626243
      ],
      [
        3.852347,
        43.624511
      ],
      [
        3.854633,
        43.622598
      ],
      [
        3.856967,
        43.621089
      ],
      [
        3.857497,
        43.620826
      ],
      [
        3.859422,
        43.620005
      ],
      [
        3.862679,
        43.618653
      ],
      [
        3.865398,
        43.618214
      ],
      [
        3.867069,
        43.61756
      ],
      [
        3.869532,
        43.617618
      ],
      [
        3.872109,
        43.617206
      ],
      [
        3.874712,
        43.616259
      ],
      [
        3.876665,
        43.615443
      ],
      [
        3.879716,
        43.614966
      ],
      [
        3.882447,
        43.614996
      ],
      [
        3.883319,
        43.613977
      ],
      [
        3.887185,
        43.613818
      ],
      [
        3.889003,
        43.612854
      ],
      [
        3.889787,
        43.611553
      ],
      [
        3.89058,
        43.610083
      ],
      [
        3.892491,
        43.608975
      ],
      [
        3.894534,
        43.608791
      ],
      [
        3.900138,
        43.609509
      ],
      [
        3.906427,
        43.60997
      ],
      [
        3.912457,
        43.608494
      ],
      [
        3.918474,
        43.607092
      ],
      [
        3.924718,
        43.607681
      ],
      [
        3.932055,
        43.607296
      ],
      [
        3.93766,
        43.602976
      ],
      [
        3.940127,
        43.597289
      ],
      [
        3.9401,
        43.591304
      ],
      [
        3.940939,
        43.585404
      ],
      [
        3.944646,
        43.58009
      ],
      [
        3.950035,
        43.575558
      ],
      [
        3.955485,
        43.57114
      ],
      [
        3.957563,
        43.565442
      ],
      [
        3.961883,
        43.560347
      ],
      [
        3.966425,
        43.555346
      ],
      [
        3.971997,
        43.55113
      ],
      [
        3.979917,
        43.54987
      ],
      [
        3.987653,
        43.550304
      ],
      [
        3.995283,
        43.552308
      ],
      [
        4.003362,
        43.553265
      ],
      [
        4.01108,
        43.555335
      ],
      [
        4.01893,
        43.557167
      ],
      [
        4.026993,
        43.558493
      ],
      [
        4.034553,
        43.560727
      ],
      [
        4.042297,
        43.562746
      ],
      [
        4.050205,
        43.564439
      ],
      [
        4.058113,
        43.56615
      ],
      [
        4.066005,
        43.56786
      ],
      [
        4.073871,
        43.569587
      ],
      [
        4.078731,
        43.567865
      ],
      [
        4.079498,
        43.563908
      ],
      [
        4.078305,
        43.562843
      ],
      [
        4.076845,
        43.563075
      ],
      [
        4.076845,
        43.563075
      ],
      [
        4.076512,
        43.563987
      ],
      [
        4.075101,
        43.5643
      ],
      [
        4.073194,
        43.564661
      ],
      [
        4.072338,
        43.563234
      ],
      [
        4.071567,
        43.562099
      ],
      [
        4.071365,
        43.561652
      ],
      [
        4.075359,
        43.561225
      ],
      [
        4.077267,
        43.560803
      ],
      [
        4.078657,
        43.559592
      ],
      [
        4.081673,
        43.560828
      ],
      [
        4.083115,
        43.559143
      ],
      [
        4.085216,
        43.55936
      ],
      [
        4.08689,
        43.557749
      ],
      [
        4.088203,
        43.558908
      ],
      [
        4.088992,
        43.559705
      ],
      [
        4.088213,
        43.560672
      ],
      [
        4.087404,
        43.5618
      ],
      [
        4.086006,
        43.563553
      ],
      [
        4.082273,
        43.564174
      ],
      [
        4.079239,
        43.566418
      ],
      [
        4.078721,
        43.57002
      ],
      [
        4.081258,
        43.572267
      ],
      [
        4.077597,
        43.570549
      ],
      [
        4.069965,
        43.568904
      ],
      [
        4.062049,
        43.567193
      ],
      [
        4.054134,
        43.565491
      ],
      [
        4.04624,
        43.56378
      ],
      [
        4.038305,
        43.562029
      ],
      [
        4.030272,
        43.559289
      ],
      [
        4.022255,
        43.557888
      ],
      [
        4.013714,
        43.556166
      ],
      [
        4.005997,
        43.55413
      ],
      [
        3.998079,
        43.552579
      ],
      [
        3.990044,
        43.551531
      ],
      [
        3.982539,
        43.549384
      ],
      [
        3.974742,
        43.551064
      ],
      [
        3.967949,
        43.553853
      ],
      [
        3.963384,
        43.558827
      ],
      [
        3.959028,
        43.563927
      ],
      [
        3.956015,
        43.569396
      ],
      [
        3.952096,
        43.574398
      ],
      [
        3.946375,
        43.578707
      ],
      [
        3.941987,
        43.583742
      ],
      [
        3.940335,
        43.588531
      ],
      [
        3.940292,
        43.593093
      ],
      [
        3.940292,
        43.593093
      ],
      [
        3.94029,
        43.596076
      ],
      [
        3.940283,
        43.596527
      ],
      [
        3.939997,
        43.598398
      ],
      [
        3.939111,
        43.60092
      ],
      [
        3.937785,
        43.603009
      ],
      [
        3.93604,
        43.604903
      ],
      [
        3.933086,
        43.60694
      ],
      [
        3.92703,
        43.608153
      ],
      [
        3.92703,
        43.608153
      ],
      [
        3.921274,
        43.607401
      ],
      [
        3.915121,
        43.60796
      ],
      [
        3.909432,
        43.609437
      ],
      [
        3.903511,
        43.610022
      ],
      [
        3.898005,
        43.609268
      ],
      [
        3.896298,
        43.60905
      ],
      [
        3.895667,
        43.608995
      ],
      [
        3.894099,
        43.609445
      ],
      [
        3.890961,
        43.610368
      ],
      [
        3.890373,
        43.610582
      ],
      [
        3.889146,
        43.612816
      ],
      [
        3.888807,
        43.613196
      ],
      [
        3.886334,
        43.613983
      ],
      [
        3.885674,
        43.6139
      ],
      [
        3.884423,
        43.614078
      ],
      [
        3.883902,
        43.614326
      ],
      [
        3.882802,
        43.615025
      ],
      [
        3.882135,
        43.615057
      ],
      [
        3.879873,
        43.615081
      ],
      [
        3.87783,
        43.615234
      ],
      [
        3.877271,
        43.615488
      ],
      [
        3.875052,
        43.616098
      ],
      [
        3.874103,
        43.616718
      ],
      [
        3.873654,
        43.617032
      ],
      [
        3.871626,
        43.617465
      ],
      [
        3.869332,
        43.617633
      ],
      [
        3.86835,
        43.617267
      ],
      [
        3.866494,
        43.617817
      ],
      [
        3.863757,
        43.618342
      ],
      [
        3.863148,
        43.618518
      ],
      [
        3.860611,
        43.619593
      ],
      [
        3.858391,
        43.620483
      ],
      [
        3.857848,
        43.620765
      ],
      [
        3.855211,
        43.622193
      ],
      [
        3.854495,
        43.622978
      ],
      [
        3.851534,
        43.624887
      ],
      [
        3.848543,
        43.626646
      ],
      [
        3.845977,
        43.62835
      ],
      [
        3.845604,
        43.628729
      ],
      [
        3.843536,
        43.62992
      ],
      [
        3.843159,
        43.630306
      ],
      [
        3.842844,
        43.631204
      ],
      [
        3.841588,
        43.631452
      ],
      [
        3.837768,
        43.632232
      ],
      [
        3.834512,
        43.634271
      ],
      [
        3.83309,
        43.634389
      ],
      [
        3.832194,
        43.633708
      ],
      [
        3.832403,
        43.632443
      ],
      [
        3.833467,
        43.632462
      ],
      [
        3.834205,
        43.631296
      ],
      [
        3.834384,
        43.63173
      ],
      [
        3.834831,
        43.63205
      ]
    ]
  }
}
