{
  "type": "Feature",
  "properties": {
    "name": "Samsung s22",
    "source": "2026-05-10.kml",
    "pointCount": 145,
    "sanitized": false,
    "previewOnly": true
  },
  "geometry": {
    "type": "LineString",
    "coordinates": [
      [
        3.834232,
        43.631172
      ],
      [
        3.835985,
        43.630637
      ],
      [
        3.83699,
        43.631618
      ],
      [
        3.835771,
        43.632113
      ],
      [
        3.834216,
        43.632718
      ],
      [
        3.833774,
        43.633624
      ],
      [
        3.834358,
        43.634203
      ],
      [
        3.83804,
        43.631959
      ],
      [
        3.841787,
        43.630788
      ],
      [
        3.844844,
        43.629086
      ],
      [
        3.84635,
        43.627743
      ],
      [
        3.849631,
        43.625816
      ],
      [
        3.853102,
        43.624102
      ],
      [
        3.855591,
        43.621898
      ],
      [
        3.857547,
        43.620799
      ],
      [
        3.859564,
        43.619949
      ],
      [
        3.862747,
        43.61861
      ],
      [
        3.865464,
        43.618201
      ],
      [
        3.867113,
        43.617544
      ],
      [
        3.869326,
        43.617567
      ],
      [
        3.871731,
        43.617329
      ],
      [
        3.873993,
        43.616722
      ],
      [
        3.87496,
        43.616087
      ],
      [
        3.877745,
        43.615193
      ],
      [
        3.880738,
        43.614783
      ],
      [
        3.883033,
        43.614798
      ],
      [
        3.884505,
        43.613729
      ],
      [
        3.888851,
        43.613053
      ],
      [
        3.889556,
        43.611962
      ],
      [
        3.890669,
        43.609922
      ],
      [
        3.892295,
        43.608973
      ],
      [
        3.892966,
        43.608913
      ],
      [
        3.898195,
        43.609216
      ],
      [
        3.904478,
        43.610048
      ],
      [
        3.910599,
        43.608996
      ],
      [
        3.91658,
        43.60741
      ],
      [
        3.922821,
        43.607366
      ],
      [
        3.929324,
        43.60803
      ],
      [
        3.936072,
        43.604769
      ],
      [
        3.939586,
        43.599415
      ],
      [
        3.940198,
        43.593427
      ],
      [
        3.940126,
        43.587939
      ],
      [
        3.942737,
        43.582278
      ],
      [
        3.94759,
        43.577429
      ],
      [
        3.953501,
        43.573291
      ],
      [
        3.956026,
        43.567786
      ],
      [
        3.959952,
        43.562552
      ],
      [
        3.964416,
        43.557526
      ],
      [
        3.96905,
        43.552539
      ],
      [
        3.976621,
        43.550859
      ],
      [
        3.983303,
        43.548959
      ],
      [
        3.987547,
        43.549825
      ],
      [
        3.985631,
        43.549327
      ],
      [
        3.985119,
        43.548163
      ],
      [
        3.985914,
        43.546819
      ],
      [
        3.983916,
        43.546136
      ],
      [
        3.98177,
        43.545416
      ],
      [
        3.980965,
        43.546401
      ],
      [
        3.977993,
        43.54521
      ],
      [
        3.977993,
        43.54521
      ],
      [
        3.978295,
        43.545664
      ],
      [
        3.979159,
        43.547273
      ],
      [
        3.979148,
        43.548364
      ],
      [
        3.978078,
        43.548671
      ],
      [
        3.975875,
        43.548277
      ],
      [
        3.974346,
        43.548277
      ],
      [
        3.972028,
        43.547226
      ],
      [
        3.970568,
        43.545608
      ],
      [
        3.968155,
        43.544146
      ],
      [
        3.968652,
        43.542462
      ],
      [
        3.967225,
        43.540977
      ],
      [
        3.965423,
        43.540159
      ],
      [
        3.963324,
        43.539205
      ],
      [
        3.96105,
        43.538177
      ],
      [
        3.958789,
        43.53717
      ],
      [
        3.956321,
        43.53618
      ],
      [
        3.953919,
        43.535218
      ],
      [
        3.951636,
        43.534323
      ],
      [
        3.948974,
        43.533267
      ],
      [
        3.946553,
        43.532541
      ],
      [
        3.94403,
        43.531819
      ],
      [
        3.941918,
        43.531246
      ],
      [
        3.940042,
        43.531246
      ],
      [
        3.939031,
        43.533188
      ],
      [
        3.938055,
        43.534935
      ],
      [
        3.93206,
        43.535634
      ],
      [
        3.926414,
        43.533091
      ],
      [
        3.924287,
        43.530941
      ],
      [
        3.920852,
        43.531445
      ],
      [
        3.916514,
        43.534023
      ],
      [
        3.908699,
        43.534599
      ],
      [
        3.901937,
        43.537346
      ],
      [
        3.898204,
        43.54018
      ],
      [
        3.896365,
        43.54365
      ],
      [
        3.894093,
        43.54941
      ],
      [
        3.892994,
        43.555312
      ],
      [
        3.893925,
        43.561239
      ],
      [
        3.895219,
        43.567165
      ],
      [
        3.89665,
        43.573066
      ],
      [
        3.89808,
        43.578989
      ],
      [
        3.897079,
        43.584132
      ],
      [
        3.893529,
        43.587282
      ],
      [
        3.890805,
        43.589091
      ],
      [
        3.889292,
        43.589418
      ],
      [
        3.885921,
        43.590201
      ],
      [
        3.882817,
        43.591336
      ],
      [
        3.880785,
        43.592064
      ],
      [
        3.8796,
        43.593026
      ],
      [
        3.878479,
        43.595126
      ],
      [
        3.876366,
        43.596533
      ],
      [
        3.873128,
        43.598498
      ],
      [
        3.869198,
        43.600514
      ],
      [
        3.866046,
        43.60315
      ],
      [
        3.864477,
        43.606345
      ],
      [
        3.862185,
        43.608404
      ],
      [
        3.861623,
        43.608616
      ],
      [
        3.857398,
        43.6092
      ],
      [
        3.853501,
        43.608967
      ],
      [
        3.852867,
        43.608901
      ],
      [
        3.848627,
        43.608718
      ],
      [
        3.84402,
        43.608839
      ],
      [
        3.841571,
        43.60894
      ],
      [
        3.837413,
        43.609729
      ],
      [
        3.832663,
        43.610625
      ],
      [
        3.829209,
        43.611284
      ],
      [
        3.828608,
        43.611421
      ],
      [
        3.824243,
        43.612177
      ],
      [
        3.821449,
        43.614759
      ],
      [
        3.820715,
        43.617835
      ],
      [
        3.822605,
        43.620772
      ],
      [
        3.823465,
        43.622912
      ],
      [
        3.826753,
        43.624542
      ],
      [
        3.830975,
        43.623301
      ],
      [
        3.834013,
        43.623378
      ],
      [
        3.836282,
        43.624775
      ],
      [
        3.839272,
        43.62705
      ],
      [
        3.841925,
        43.630239
      ],
      [
        3.842124,
        43.630675
      ],
      [
        3.84139,
        43.63128
      ],
      [
        3.837226,
        43.632693
      ],
      [
        3.833849,
        43.634434
      ],
      [
        3.832525,
        43.633984
      ],
      [
        3.83212,
        43.633621
      ],
      [
        3.83228,
        43.632457
      ],
      [
        3.83329,
        43.632572
      ]
    ]
  }
}
